NORAD_CAT_ID,OBJECT_NAME,OBJECT_TYPE,EPOCH,MEAN_MOTION,ECCENTRICITY,INCLINATION,RA_OF_ASC_NODE,ARG_OF_PERICENTER,MEAN_ANOMALY,BSTAR,MEAN_MOTION_DOT,MEAN_MOTION_DDOT,TLE_LINE0,TLE_LINE1,TLE_LINE2,SEMIMAJOR_AXIS,PERIOD,APOGEE,PERIGEE,DECAYED
53722.0,STARLINK-4700,PAYLOAD,2023-04-21 19:06:21,15.08846708,8.94e-05,53.2145,300.6573,62.5865,297.5218,0.00011244,1.503e-05,0.0,0 STARLINK-4700,1 53722U 22107Y   23111.79607671  .00001503  00000-0  11244-3 0  9996,2 53722  53.2145 300.6573 0000894  62.5865 297.5218 15.08846708 35456,6917.86,95.437,540.343,539.106,0.0
53722.0,STARLINK-4700,PAYLOAD,2023-04-21 22:17:07,15.0884895,9.19e-05,53.2143,300.0624,64.1321,295.9766,0.00015663,2.206e-05,0.0,0 STARLINK-4700,1 53722U 22107Y   23111.92855561  .00002206  00000-0  15663-3 0  9994,2 53722  53.2143 300.0624 0000919  64.1321 295.9766 15.08848950 35471,6917.853,95.437,540.354,539.082,0.0
53722.0,STARLINK-4700,PAYLOAD,2023-04-22 15:46:21,15.08841135,8.58e-05,53.2141,296.7899,70.9616,289.1469,7.3231e-05,8.78e-06,0.0,0 STARLINK-4700,1 53722U 22107Y   23112.65719810  .00000878  00000-0  73231-4 0  9990,2 53722  53.2141 296.7899 0000858  70.9616 289.1469 15.08841135 35134,6917.877,95.437,540.335,539.148,0.0
53722.0,STARLINK-4700,PAYLOAD,2023-04-22 22:07:54,15.08848429,9.11e-05,53.2147,295.601,78.5812,281.5283,0.00018088,2.593e-05,0.0,0 STARLINK-4700,1 53722U 22107Y   23112.92215402  .00002593  00000-0  18088-3 0  9992,2 53722  53.2147 295.6010 0000911  78.5812 281.5283 15.08848429 35172,6917.855,95.437,540.35,539.089,0.0
53722.0,STARLINK-4700,PAYLOAD,2023-04-23 14:01:46,15.08834889,8.28e-05,53.216,292.6262,102.8113,257.2971,-1.7974e-05,-5.74e-06,0.0,0 STARLINK-4700,1 53722U 22107Y   23113.58456119 -.00000574  00000-0 -17974-4 0  9990,2 53722  53.2160 292.6262 0000828 102.8113 257.2971 15.08834889 35275,6917.896,95.438,540.334,539.188,0.0
53722.0,STARLINK-4700,PAYLOAD,2023-04-24 04:20:13,15.08853101,9.63e-05,53.2144,289.9502,77.2955,282.8144,0.00022395,3.279e-05,0.0,0 STARLINK-4700,1 53722U 22107Y   23114.18071459  .00003279  00000-0  22395-3 0  9992,2 53722  53.2144 289.9502 0000963  77.2955 282.8144 15.08853101 35366,6917.84,95.437,540.372,539.039,0.0
53722.0,STARLINK-4700,PAYLOAD,2023-04-24 12:17:08,15.0886268,7.54e-05,53.2136,288.4608,64.9612,295.1458,0.00031215,4.687e-05,0.0,0 STARLINK-4700,1 53722U 22107Y   23114.51190773  .00004687  00000-0  31215-3 0  9995,2 53722  53.2136 288.4608 0000754  64.9612 295.1458 15.08862680 35861,6917.811,95.436,540.198,539.154,0.0
53722.0,STARLINK-4700,PAYLOAD,2023-04-24 18:38:40,15.08884624,9.35e-05,53.2146,287.2739,77.667,282.4427,0.0010198,0.00015999,0.0,0 STARLINK-4700,1 53722U 22107Y   23114.77686025  .00015999  00000-0  10198-2 0  9997,2 53722  53.2146 287.2739 0000935  77.6670 282.4427 15.08884624 35452,6917.744,95.435,540.256,538.962,0.0
53722.0,STARLINK-4700,PAYLOAD,2023-04-25 04:11:00,15.08815116,0.0001107,53.2177,285.4898,124.6482,235.4615,-0.001399,-0.00022468,0.0,0 STARLINK-4700,1 53722U 22107Y   23115.17431256 -.00022468  00000-0 -13990-2 0  9990,2 53722  53.2177 285.4898 0001107 124.6482 235.4615 15.08815116 35512,6917.956,95.439,540.587,539.056,0.0
53722.0,STARLINK-4700,PAYLOAD,2023-04-25 12:07:57,15.08786565,0.0001057,53.2147,284.0031,114.9888,245.1214,-0.0014962,-0.00023986,0.0,0 STARLINK-4700,1 53722U 22107Y   23115.50552994 -.00023986  00000-0 -14962-2 0  9996,2 53722  53.2147 284.0031 0001057 114.9888 245.1214 15.08786565 35562,6918.044,95.441,540.64,539.177,0.0
53722.0,STARLINK-4700,PAYLOAD,2023-04-25 23:15:41,15.08782636,0.0001311,53.2147,281.9211,112.0124,248.1008,-0.00083318,-0.00013502,0.0,0 STARLINK-4700,1 53722U 22107Y   23115.96923064 -.00013502  00000-0 -83318-3 0  9991,2 53722  53.2147 281.9211 0001311 112.0124 248.1008 15.08782636 35630,6918.056,95.441,540.828,539.014,0.0
53722.0,STARLINK-4700,PAYLOAD,2023-04-26 13:34:09,15.0882686,9.61e-05,53.2196,279.2517,311.9534,48.1377,0.00050601,7.772e-05,0.0,0 STARLINK-4700,1 53722U 22107Y   23116.56538762  .00007772  00000-0  50601-3 0  9994,2 53722  53.2196 279.2517 0000961 311.9534  48.1377 15.08826860 36173,6917.921,95.438,540.45,539.121,0.0
53722.0,STARLINK-4700,PAYLOAD,2023-04-26 19:55:41,15.08847782,9.01e-05,53.2149,278.056,115.5721,244.5364,0.00060891,9.418e-05,0.0,0 STARLINK-4700,1 53722U 22107Y   23116.83033940  .00009418  00000-0  60891-3 0  9993,2 53722  53.2149 278.0560 0000901 115.5721 244.5364 15.08847782 36215,6917.857,95.437,540.345,539.098,0.0
53722.0,STARLINK-4700,PAYLOAD,2023-04-27 03:52:37,15.08847112,8.39e-05,53.2139,276.5716,117.0279,243.0799,0.00058593,9.051e-05,0.0,0 STARLINK-4700,1 53722U 22107Y   23117.16154128  .00009051  00000-0  58593-3 0  9991,2 53722  53.2139 276.5716 0000839 117.0279 243.0799 15.08847112 35813,6917.859,95.437,540.304,539.143,0.0
53722.0,STARLINK-4700,PAYLOAD,2023-04-27 10:14:09,15.08849032,8.98e-05,53.214,275.3818,115.9021,244.2064,0.0007871,0.00012264,0.0,0 STARLINK-4700,1 53722U 22107Y   23117.42650243  .00012264  00000-0  78710-3 0  9992,2 53722  53.2140 275.3818 0000898 115.9021 244.2064 15.08849032 36308,6917.853,95.437,540.339,539.097,0.0
53722.0,STARLINK-4700,PAYLOAD,2023-04-28 10:04:55,15.0886042,0.0001283,53.2121,270.9231,67.9095,292.2034,0.00013499,1.862e-05,0.0,0 STARLINK-4700,1 53722U 22107Y   23118.42008823  .00001862  00000-0  13499-3 0  9999,2 53722  53.2121 270.9231 0001283  67.9095 292.2034 15.08860420 36004,6917.818,95.436,540.571,538.795,0.0
53722.0,STARLINK-4700,PAYLOAD,2023-04-28 19:37:14,15.08829465,7.2e-05,53.2167,269.1354,165.2638,194.8375,-0.00043515,-7.204e-05,0.0,0 STARLINK-4700,1 53722U 22107Y   23118.81753332 -.00007204  00000-0 -43515-3 0  9994,2 53722  53.2167 269.1354 0000720 165.2638 194.8375 15.08829465 36065,6917.913,95.438,540.276,539.28,0.0
53722.0,STARLINK-4700,PAYLOAD,2023-04-29 03:34:11,15.08821148,6.32e-05,53.2143,267.6484,121.1909,238.9146,-0.00038021,-6.33e-05,0.0,0 STARLINK-4700,1 53722U 22107Y   23119.14874455 -.00006330  00000-0 -38021-3 0  9996,2 53722  53.2143 267.6484 0000632 121.1909 238.9146 15.08821148 36112,6917.938,95.439,540.24,539.366,0.0
53722.0,STARLINK-4700,PAYLOAD,2023-04-29 13:06:29,15.08843201,8.67e-05,53.2156,265.8666,79.6544,280.4546,3.7258e-05,3.05e-06,0.0,0 STARLINK-4700,1 53722U 22107Y   23119.54617934  .00000305  00000-0  37258-4 0  9993,2 53722  53.2156 265.8666 0000867  79.6544 280.4546 15.08843201 36626,6917.871,95.437,540.335,539.136,0.0
53722.0,STARLINK-4700,PAYLOAD,2023-04-29 19:28:02,15.08852787,8.22e-05,53.2157,264.6747,97.9486,262.1599,0.00034186,5.159e-05,0.0,0 STARLINK-4700,1 53722U 22107Y   23119.81113500  .00005159  00000-0  34186-3 0  9991,2 53722  53.2157 264.6747 0000822  97.9486 262.1599 15.08852787 36212,6917.841,95.437,540.275,539.138,0.0
53722.0,STARLINK-4700,PAYLOAD,2023-04-30 12:57:16,15.08852285,0.0001077,53.2146,261.4043,89.0353,271.0763,0.00032504,4.891e-05,0.0,0 STARLINK-4700,1 53722U 22107Y   23120.53977211  .00004891  00000-0  32504-3 0  9993,2 53722  53.2146 261.4043 0001077  89.0353 271.0763 15.08852285 36778,6917.843,95.437,540.453,538.963,0.0
53722.0,STARLINK-4700,PAYLOAD,2023-04-30 20:54:11,15.08864317,9.89e-05,53.215,259.9148,103.3118,256.7985,0.00038998,5.928e-05,0.0,0 STARLINK-4700,1 53722U 22107Y   23120.87096214  .00005928  00000-0  38998-3 0  9990,2 53722  53.2150 259.9148 0000989 103.3118 256.7985 15.08864317 36372,6917.806,95.436,540.355,538.987,0.0
53722.0,STARLINK-4700,PAYLOAD,2023-05-01 12:48:03,15.08843279,0.0001313,53.215,256.9426,100.215,259.899,-0.00011723,-2.153e-05,0.0,0 STARLINK-4700,1 53722U 22107Y   23121.53337117 -.00002153  00000-0 -11723-3 0  9990,2 53722  53.2150 256.9426 0001313 100.2150 259.8990 15.08843279 36927,6917.87,95.437,540.644,538.827,0.0
53722.0,STARLINK-4700,PAYLOAD,2023-05-01 14:23:26,15.08845087,0.00014,53.2146,256.6442,105.7442,254.3704,-7.6143e-05,-1.5e-05,0.0,0 STARLINK-4700,1 53722U 22107Y   23121.59961014 -.00001500  00000-0 -76143-4 0  9998,2 53722  53.2146 256.6442 0001400 105.7442 254.3704 15.08845087 36481,6917.865,95.437,540.698,538.761,0.0
53722.0,STARLINK-4700,PAYLOAD,2023-05-01 19:09:35,15.08852247,0.0001295,53.2153,255.7532,96.2375,263.8764,5.9775e-05,6.64e-06,0.0,0 STARLINK-4700,1 53722U 22107Y   23121.79832702  .00000664  00000-0  59775-4 0  9991,2 53722  53.2153 255.7532 0001295  96.2375 263.8764 15.08852247 36960,6917.843,95.437,540.604,538.812,0.0
53722.0,STARLINK-4700,PAYLOAD,2023-05-02 12:38:49,15.08848513,0.0001239,53.2154,252.4826,93.0891,267.0243,0.00014618,2.04e-05,0.0,0 STARLINK-4700,1 53722U 22107Y   23122.52696577  .00002040  00000-0  14618-3 0  9997,2 53722  53.2154 252.4826 0001239  93.0891 267.0243 15.08848513 37079,6917.854,95.437,540.576,538.862,0.0
53722.0,STARLINK-4700,PAYLOAD,2023-05-02 15:49:35,15.08854423,0.000121,53.2158,251.8881,94.0136,266.0994,0.00031349,4.707e-05,0.0,0 STARLINK-4700,1 53722U 22107Y   23122.65944377  .00004707  00000-0  31349-3 0  9997,2 53722  53.2158 251.8881 0001210  94.0136 266.0994 15.08854423 36640,6917.836,95.437,540.538,538.864,0.0
53722.0,STARLINK-4700,PAYLOAD,2023-05-02 19:00:22,15.08858485,0.0001231,53.2156,251.2929,91.6484,268.4649,0.00060474,9.354e-05,0.0,0 STARLINK-4700,1 53722U 22107Y   23122.79192316  .00009354  00000-0  60474-3 0  9994,2 53722  53.2156 251.2929 0001231  91.6484 268.4649 15.08858485 37115,6917.824,95.436,540.54,538.837,0.0
53722.0,STARLINK-4700,PAYLOAD,2023-05-03 01:21:55,15.08837477,0.0001789,53.2153,250.1024,93.943,266.1766,0.00014264,1.983e-05,0.0,0 STARLINK-4700,1 53722U 22107Y   23123.05689020  .00001983  00000-0  14264-3 0  9993,2 53722  53.2153 250.1024 0001789  93.9430 266.1766 15.08837477 36707,6917.888,95.438,540.991,538.515,0.0
53722.0,STARLINK-4700,PAYLOAD,2023-05-03 14:05:00,15.08834653,0.0001472,53.2158,247.7251,101.8622,258.2536,-8.7942e-05,-1.687e-05,0.0,0 STARLINK-4700,1 53722U 22107Y   23123.58680971 -.00001687  00000-0 -87942-4 0  9994,2 53722  53.2158 247.7251 0001472 101.8622 258.2536 15.08834653 37236,6917.897,95.438,540.78,538.743,0.0
